NANOSATC-BR1            
1 40024U 14033Q   26068.98267556  .00020336  00000+0  74295-3 0  9994
2 40024  98.0845  92.7804 0004644 147.6715 212.4808 15.28136801638811
STARLINK-34045          
1 63979U 25099AD  26068.33681440  .00028369  00000+0  10359-2 0  9997
2 63979  43.0012 174.6288 0001909 276.8329  83.2306 15.27596870 47236
